      2.10          N: GNSS NAV DATA                        RINEX VERSION / TYPE
fic2rin                                 11/17/2018 00:20:14 PGM / RUN BY / DATE
                                                            END OF HEADER
11 18 11 16 10  0  0.0-6.992784328759e-04 4.092726157978e-12 0.000000000000e+00
    1.400000000000e+01 4.906250000000e+00 6.100254100069e-09 9.707506374434e-01
   -7.450580596924e-09 1.679407979827e-02 4.692003130913e-06 5.153665197372e+03
    4.680000000000e+05-1.601874828339e-07 8.805743964867e-02-3.147870302200e-07
    9.076441667942e-01 2.618125000000e+02 1.840955234215e+00-9.072520764049e-09
    2.210806374674e-10 1.000000000000e+00 2.027000000000e+03 0.000000000000e+00
    2.400000000000e+00 0.000000000000e+00-1.210719347000e-08 1.400000000000e+01
    4.608060000000e+05 4.000000000000e+00
 8 18 11 16 10  0  0.0-1.223692670465e-04-1.364242052659e-12 0.000000000000e+00
    9.500000000000e+01 2.762500000000e+01 4.361610250003e-09-2.067753700344e+00
    1.475214958191e-06 3.783584805205e-03 7.597729563713e-06 5.153653980255e+03
    4.680000000000e+05-1.341104507446e-07-5.390276659230e-01-5.401670932770e-08
    9.700777360887e-01 2.412187500000e+02-4.127985549910e-01-7.994261564511e-09
    2.196520065306e-10 1.000000000000e+00 2.027000000000e+03 0.000000000000e+00
    2.400000000000e+00 0.000000000000e+00 5.122274160385e-09 9.500000000000e+01
    4.608060000000e+05 4.000000000000e+00
 7 18 11 16 10  0  0.0 8.754804730415e-05-6.934897101019e-12 0.000000000000e+00
    7.300000000000e+01 2.603125000000e+01 4.764841331910e-09 9.960200383582e-01
    1.460313796997e-06 1.208914245944e-02 6.085261702538e-06 5.153629215240e+03
    4.680000000000e+05-1.415610313416e-07-2.604459330528e+00 1.061707735062e-07
    9.573128776153e-01 2.619375000000e+02-2.481781767761e+00-8.320703733566e-09
   -1.996511734156e-10 1.000000000000e+00 2.027000000000e+03 0.000000000000e+00
    2.400000000000e+00 0.000000000000e+00-1.117587089539e-08 7.300000000000e+01
    4.608060000000e+05 4.000000000000e+00
 6 18 11 16 10  0  0.0 3.326539881527e-04-6.366462912410e-12 0.000000000000e+00
    4.400000000000e+01-3.512500000000e+01 4.439470636057e-09 1.979812097475e+00
   -1.776963472366e-06 1.087855314836e-03 4.975125193596e-06 5.153740070343e+03
    4.680000000000e+05-3.725290298462e-09 5.179132083640e-01-7.078051567078e-08
    9.730860486427e-01 2.870625000000e+02-1.221102327493e+00-8.093551414617e-09
    2.500104139373e-12 1.000000000000e+00 2.027000000000e+03 0.000000000000e+00
    2.400000000000e+00 0.000000000000e+00 4.656612873077e-09 4.400000000000e+01
    4.608060000000e+05 4.000000000000e+00
13 18 11 16 10  0  0.0-8.433451876044e-05 1.023181539495e-12 0.000000000000e+00
    8.800000000000e+01 3.318750000000e+01 4.281964075277e-09 2.665584006536e+00
    1.756474375725e-06 3.607286489569e-03 8.706003427505e-06 5.153667060852e+03
    4.680000000000e+05 4.656612873077e-08 2.736408884174e+00 7.264316082001e-08
    9.683937096450e-01 2.154375000000e+02 1.417477339209e+00-7.810325331400e-09
    1.560779298437e-10 1.000000000000e+00 2.027000000000e+03 0.000000000000e+00
    2.400000000000e+00 0.000000000000e+00-1.117587089539e-08 8.800000000000e+01
    4.608060000000e+05 4.000000000000e+00
12 18 11 16 10  0  0.0 2.917340025306e-04-2.955857780762e-12 0.000000000000e+00
    1.000000000000e+02 1.640625000000e+01 3.950521697943e-09 3.695784090070e-01
    6.351619958878e-07 7.072642212734e-03 8.141621947289e-06 5.153746589661e+03
    4.680000000000e+05-5.774199962616e-08-1.507936097443e+00 7.078051567078e-08
    9.847018156860e-01 2.384687500000e+02 1.020467184223e+00-7.886042771050e-09
   -1.907222300607e-10 1.000000000000e+00 2.027000000000e+03 0.000000000000e+00
    2.400000000000e+00 0.000000000000e+00-1.257285475731e-08 1.000000000000e+02
    4.608060000000e+05 4.000000000000e+00
10 18 11 16 10  0  0.0 1.636412926018e-04-4.433786671143e-12 0.000000000000e+00
    9.400000000000e+01-6.868750000000e+01 4.516616706644e-09-3.268285209655e-01
   -3.740191459656e-06 4.001745139249e-03 8.964911103249e-06 5.153665378571e+03
    4.680000000000e+05 6.519258022308e-08 1.565658097681e+00 5.960464477539e-08
    9.615047201538e-01 2.070625000000e+02-2.820042215243e+00-8.054978379324e-09
   -2.278666344171e-10 1.000000000000e+00 2.027000000000e+03 0.000000000000e+00
    2.400000000000e+00 0.000000000000e+00 1.862645149231e-09 9.400000000000e+01
    4.608060000000e+05 4.000000000000e+00
27 18 11 16 10  0  0.0-1.879222691059e-05-5.229594535194e-12 0.000000000000e+00
    1.500000000000e+01 3.265625000000e+01 4.128386249573e-09-2.452607240159e+00
    1.547858119011e-06 6.177108269185e-03 7.569789886475e-06 5.153700611115e+03
    4.680000000000e+05-7.450580596924e-09-5.291932708181e-01-1.676380634308e-07
    9.783194303369e-01 2.435937500000e+02 4.363762666974e-01-7.877113827695e-09
    2.639395655709e-10 1.000000000000e+00 2.027000000000e+03 0.000000000000e+00
    2.400000000000e+00 0.000000000000e+00 1.862645149231e-09 1.500000000000e+01
    4.608060000000e+05 4.000000000000e+00
14 18 11 16 10  0  0.0-9.574694558978e-05 3.410605131648e-13 0.000000000000e+00
    2.300000000000e+01 2.825000000000e+01 4.359110145863e-09-2.714501023235e+00
    1.560896635056e-06 9.995694388635e-03 9.132549166679e-06 5.153645629883e+03
    4.680000000000e+05 1.080334186554e-07 2.693344334157e+00-7.078051567078e-08
    9.609256474389e-01 2.025625000000e+02-1.946415989136e+00-7.702106537939e-09
    2.114373786441e-10 1.000000000000e+00 2.027000000000e+03 0.000000000000e+00
    2.400000000000e+00 0.000000000000e+00-9.778887033463e-09 2.300000000000e+01
    4.608060000000e+05 4.000000000000e+00
23 18 11 16 10  0  0.0-2.060653641820e-04 1.023181539495e-12 0.000000000000e+00
    1.800000000000e+01 2.021875000000e+01 4.821272253913e-09 2.422955527698e+00
    8.307397365570e-07 1.263041608036e-02 9.171664714813e-06 5.153696535110e+03
    4.680000000000e+05-5.774199962616e-08 2.598879984800e+00-2.644956111908e-07
    9.435143636519e-01 1.924062500000e+02-2.319818147086e+00-7.950688320939e-09
    1.185763677531e-10 1.000000000000e+00 2.027000000000e+03 0.000000000000e+00
    2.400000000000e+00 0.000000000000e+00-2.002343535423e-08 1.800000000000e+01
    4.608060000000e+05 4.000000000000e+00
21 18 11 16 10  0  0.0-3.034826368093e-04 6.480149750132e-12 0.000000000000e+00
    1.300000000000e+01-2.575000000000e+01 5.302363721875e-09-1.132990670638e-01
   -1.234933733940e-06 2.445147570688e-02 4.949048161507e-06 5.153584856033e+03
    4.680000000000e+05-3.781169652939e-07 4.672168839043e-01 3.725290298462e-09
    9.461629987781e-01 2.809375000000e+02-1.512477589105e+00-9.014304053375e-09
    1.050043738536e-10 1.000000000000e+00 2.027000000000e+03 0.000000000000e+00
    2.400000000000e+00 0.000000000000e+00-9.778887033463e-09 1.300000000000e+01
    4.608060000000e+05 4.000000000000e+00
29 18 11 16 10  0  0.0 3.350651822984e-04-7.958078640513e-12 0.000000000000e+00
    1.200000000000e+01 3.259375000000e+01 4.084098690532e-09-1.904011599920e+00
    1.775100827217e-06 6.678736535832e-04 6.956979632378e-06 5.153604879379e+03
    4.680000000000e+05 2.235174179077e-08-4.633198135071e-01-1.117587089539e-08
    9.851077637496e-01 2.604375000000e+02 1.654162739683e+00-7.912472443380e-09
    2.710827202548e-10 1.000000000000e+00 2.027000000000e+03 0.000000000000e+00
    2.400000000000e+00 0.000000000000e+00-1.024454832077e-08 1.200000000000e+01
    4.608060000000e+05 4.000000000000e+00
16 18 11 16 10  0  0.0-1.409556716681e-06-2.046363078989e-12 0.000000000000e+00
    5.700000000000e+01 5.250000000000e+00 3.845874481823e-09-1.504651034435e+00
    1.192092895508e-07 1.014621998183e-02 8.231028914452e-06 5.153730310440e+03
    4.680000000000e+05 1.024454832077e-07-1.489017749097e+00-1.769512891769e-07
    9.850959711670e-01 2.277187500000e+02 5.181549277811e-01-7.698177802862e-09
   -8.714648714384e-11 1.000000000000e+00 2.027000000000e+03 0.000000000000e+00
    2.400000000000e+00 0.000000000000e+00-1.071020960808e-08 5.700000000000e+01
    4.608060000000e+05 4.000000000000e+00
30 18 11 16 10  0  0.0-5.563255399466e-06-5.684341886081e-12 0.000000000000e+00
    4.600000000000e+01 2.481250000000e+01 5.025566477873e-09 9.778917096634e-01
    1.356005668640e-06 3.573781345040e-03 5.880370736122e-06 5.153661516190e+03
    4.680000000000e+05-9.313225746155e-09-2.573426010437e+00 7.636845111847e-08
    9.428311867605e-01 2.561875000000e+02-2.982500741104e+00-8.368562869948e-09
   -1.017899542459e-10 1.000000000000e+00 2.027000000000e+03 0.000000000000e+00
    2.400000000000e+00 0.000000000000e+00 3.725290298462e-09 4.600000000000e+01
    4.608060000000e+05 4.000000000000e+00
24 18 11 16 10  0  0.0-5.821883678436e-05-4.547473508865e-13 0.000000000000e+00
    1.010000000000e+02 3.100000000000e+01 5.099498128852e-09 2.012305959866e+00
    1.600012183189e-06 7.642717566341e-03 6.079673767090e-06 5.153616815567e+03
    4.680000000000e+05-1.545995473862e-07-2.667133946297e+00 2.235174179077e-08
    9.404498443223e-01 2.513125000000e+02 5.483350389382e-01-8.398921277355e-09
   -8.464638300447e-11 1.000000000000e+00 2.027000000000e+03 0.000000000000e+00
    3.400000000000e+00 0.000000000000e+00 2.793967723846e-09 1.010000000000e+02
    4.608060000000e+05 4.000000000000e+00
17 18 11 16 10  0  0.0-3.079231828451e-05 4.888534022029e-12 0.000000000000e+00
    7.200000000000e+01 2.187500000000e+01 3.987308944565e-09-2.462293718154e+00
    1.210719347000e-06 1.284978829790e-02 6.604939699173e-06 5.153647474289e+03
    4.680000000000e+05 1.639127731323e-07-4.741640931463e-01 9.499490261078e-08
    9.837380745137e-01 2.608437500000e+02-1.761486153586e+00-7.673176761469e-09
    2.742971398626e-10 1.000000000000e+00 2.027000000000e+03 0.000000000000e+00
    2.400000000000e+00 0.000000000000e+00-1.117587089539e-08 7.200000000000e+01
    4.608060000000e+05 4.000000000000e+00
